{
  "type": "FeatureCollection",
  "features": [
    {
      "type": "Feature",
      "properties": {
        "OBJECT_NAME": "COSMOS 2477 (745)",
        "OBJECT_ID": "2011-064B",
        "EPOCH": "2025-11-29T21:10:50.094336",
        "MEAN_MOTION": 2.13102712,
        "ECCENTRICITY": 0.0020945,
        "INCLINATION": 65.1619,
        "RA_OF_ASC_NODE": 79.6839,
        "ARG_OF_PERICENTER": 233.6607,
        "MEAN_ANOMALY": 211.395,
        "EPHEMERIS_TYPE": 0,
        "CLASSIFICATION_TYPE": "U",
        "NORAD_CAT_ID": 37868,
        "ELEMENT_SET_NO": 999,
        "REV_AT_EPOCH": 10951,
        "BSTAR": 0,
        "MEAN_MOTION_DOT": 0,
        "MEAN_MOTION_DDOT": 0,
        "norad_id": 37868,
        "name": "COSMOS 2477 (745)",
        "group": "glo-ops",
        "longitude_deg": NaN,
        "latitude_deg": NaN,
        "alt_km": NaN,
        "orbit_class": "HEO",
        "timestamp": "2025-11-30T04:52:16.838954+00:00"
      },
      "geometry": {
        "type": "Point",
        "coordinates": [
          NaN,
          NaN
        ]
      }
    },
    {
      "type": "Feature",
      "properties": {
        "OBJECT_NAME": "COSMOS 2475 (743)",
        "OBJECT_ID": "2011-064C",
        "EPOCH": "2025-11-27T11:52:57.325152",
        "MEAN_MOTION": 2.13101456,
        "ECCENTRICITY": 0.00258586,
        "INCLINATION": 65.1676,
        "RA_OF_ASC_NODE": 79.7846,
        "ARG_OF_PERICENTER": 247.9398,
        "MEAN_ANOMALY": 121.59,
        "EPHEMERIS_TYPE": 0,
        "CLASSIFICATION_TYPE": "U",
        "NORAD_CAT_ID": 37869,
        "ELEMENT_SET_NO": 999,
        "REV_AT_EPOCH": 10947,
        "BSTAR": 0,
        "MEAN_MOTION_DOT": 1.6e-07,
        "MEAN_MOTION_DDOT": 0,
        "norad_id": 37869,
        "name": "COSMOS 2475 (743)",
        "group": "glo-ops",
        "longitude_deg": NaN,
        "latitude_deg": NaN,
        "alt_km": NaN,
        "orbit_class": "HEO",
        "timestamp": "2025-11-30T04:52:16.838962+00:00"
      },
      "geometry": {
        "type": "Point",
        "coordinates": [
          NaN,
          NaN
        ]
      }
    },
    {
      "type": "Feature",
      "properties": {
        "OBJECT_NAME": "COSMOS 2485 (747)",
        "OBJECT_ID": "2013-019A",
        "EPOCH": "2025-11-24T07:30:54.982368",
        "MEAN_MOTION": 2.13103115,
        "ECCENTRICITY": 0.0024274,
        "INCLINATION": 65.3036,
        "RA_OF_ASC_NODE": 80.4871,
        "ARG_OF_PERICENTER": 228.0776,
        "MEAN_ANOMALY": 131.7167,
        "EPHEMERIS_TYPE": 0,
        "CLASSIFICATION_TYPE": "U",
        "NORAD_CAT_ID": 39155,
        "ELEMENT_SET_NO": 999,
        "REV_AT_EPOCH": 9791,
        "BSTAR": 0,
        "MEAN_MOTION_DOT": 1.2e-07,
        "MEAN_MOTION_DDOT": 0,
        "norad_id": 39155,
        "name": "COSMOS 2485 (747)",
        "group": "glo-ops",
        "longitude_deg": NaN,
        "latitude_deg": NaN,
        "alt_km": NaN,
        "orbit_class": "HEO",
        "timestamp": "2025-11-30T04:52:16.839668+00:00"
      },
      "geometry": {
        "type": "Point",
        "coordinates": [
          NaN,
          NaN
        ]
      }
    },
    {
      "type": "Feature",
      "properties": {
        "OBJECT_NAME": "COSMOS 2492 (754)",
        "OBJECT_ID": "2014-012A",
        "EPOCH": "2025-11-26T03:34:14.840832",
        "MEAN_MOTION": 2.13103222,
        "ECCENTRICITY": 0.00140964,
        "INCLINATION": 65.417,
        "RA_OF_ASC_NODE": 320.8337,
        "ARG_OF_PERICENTER": 310.0598,
        "MEAN_ANOMALY": 49.8317,
        "EPHEMERIS_TYPE": 0,
        "CLASSIFICATION_TYPE": "U",
        "NORAD_CAT_ID": 39620,
        "ELEMENT_SET_NO": 999,
        "REV_AT_EPOCH": 9091,
        "BSTAR": 0,
        "MEAN_MOTION_DOT": -1.6e-07,
        "MEAN_MOTION_DDOT": 0,
        "norad_id": 39620,
        "name": "COSMOS 2492 (754)",
        "group": "glo-ops",
        "longitude_deg": NaN,
        "latitude_deg": NaN,
        "alt_km": NaN,
        "orbit_class": "HEO",
        "timestamp": "2025-11-30T04:52:16.840272+00:00"
      },
      "geometry": {
        "type": "Point",
        "coordinates": [
          NaN,
          NaN
        ]
      }
    },
    {
      "type": "Feature",
      "properties": {
        "OBJECT_NAME": "COSMOS 2500 (755)",
        "OBJECT_ID": "2014-032A",
        "EPOCH": "2025-11-29T14:32:37.301856",
        "MEAN_MOTION": 2.13105738,
        "ECCENTRICITY": 0.0008407,
        "INCLINATION": 65.3509,
        "RA_OF_ASC_NODE": 320.4796,
        "ARG_OF_PERICENTER": 218.9192,
        "MEAN_ANOMALY": 141.0367,
        "EPHEMERIS_TYPE": 0,
        "CLASSIFICATION_TYPE": "U",
        "NORAD_CAT_ID": 40001,
        "ELEMENT_SET_NO": 999,
        "REV_AT_EPOCH": 8920,
        "BSTAR": 0,
        "MEAN_MOTION_DOT": -1.7e-07,
        "MEAN_MOTION_DDOT": 0,
        "norad_id": 40001,
        "name": "COSMOS 2500 (755)",
        "group": "glo-ops",
        "longitude_deg": NaN,
        "latitude_deg": NaN,
        "alt_km": NaN,
        "orbit_class": "HEO",
        "timestamp": "2025-11-30T04:52:16.840382+00:00"
      },
      "geometry": {
        "type": "Point",
        "coordinates": [
          NaN,
          NaN
        ]
      }
    },
    {
      "type": "Feature",
      "properties": {
        "OBJECT_NAME": "COSMOS 2501 (702K)",
        "OBJECT_ID": "2014-075A",
        "EPOCH": "2025-11-27T23:43:27.729696",
        "MEAN_MOTION": 2.13101338,
        "ECCENTRICITY": 0.0020193,
        "INCLINATION": 63.6136,
        "RA_OF_ASC_NODE": 197.3361,
        "ARG_OF_PERICENTER": 204.9779,
        "MEAN_ANOMALY": 155.0093,
        "EPHEMERIS_TYPE": 0,
        "CLASSIFICATION_TYPE": "U",
        "NORAD_CAT_ID": 40315,
        "ELEMENT_SET_NO": 999,
        "REV_AT_EPOCH": 8556,
        "BSTAR": 0,
        "MEAN_MOTION_DOT": 7.3e-07,
        "MEAN_MOTION_DDOT": 0,
        "norad_id": 40315,
        "name": "COSMOS 2501 (702K)",
        "group": "glo-ops",
        "longitude_deg": NaN,
        "latitude_deg": NaN,
        "alt_km": NaN,
        "orbit_class": "HEO",
        "timestamp": "2025-11-30T04:52:16.840866+00:00"
      },
      "geometry": {
        "type": "Point",
        "coordinates": [
          NaN,
          NaN
        ]
      }
    },
    {
      "type": "Feature",
      "properties": {
        "OBJECT_NAME": "COSMOS 2514 (751)",
        "OBJECT_ID": "2016-008A",
        "EPOCH": "2025-11-28T21:51:50.565888",
        "MEAN_MOTION": 2.13102473,
        "ECCENTRICITY": 0.00126201,
        "INCLINATION": 65.1417,
        "RA_OF_ASC_NODE": 319.878,
        "ARG_OF_PERICENTER": 219.7701,
        "MEAN_ANOMALY": 140.1539,
        "EPHEMERIS_TYPE": 0,
        "CLASSIFICATION_TYPE": "U",
        "NORAD_CAT_ID": 41330,
        "ELEMENT_SET_NO": 999,
        "REV_AT_EPOCH": 7635,
        "BSTAR": 0,
        "MEAN_MOTION_DOT": -1.5e-07,
        "MEAN_MOTION_DDOT": 0,
        "norad_id": 41330,
        "name": "COSMOS 2514 (751)",
        "group": "glo-ops",
        "longitude_deg": NaN,
        "latitude_deg": NaN,
        "alt_km": NaN,
        "orbit_class": "HEO",
        "timestamp": "2025-11-30T04:52:16.841650+00:00"
      },
      "geometry": {
        "type": "Point",
        "coordinates": [
          NaN,
          NaN
        ]
      }
    },
    {
      "type": "Feature",
      "properties": {
        "OBJECT_NAME": "COSMOS 2522 (752)",
        "OBJECT_ID": "2017-055A",
        "EPOCH": "2025-11-27T08:11:58.229952",
        "MEAN_MOTION": 2.13101917,
        "ECCENTRICITY": 0.00066454,
        "INCLINATION": 64.0756,
        "RA_OF_ASC_NODE": 198.7536,
        "ARG_OF_PERICENTER": 227.0793,
        "MEAN_ANOMALY": 132.9509,
        "EPHEMERIS_TYPE": 0,
        "CLASSIFICATION_TYPE": "U",
        "NORAD_CAT_ID": 42939,
        "ELEMENT_SET_NO": 999,
        "REV_AT_EPOCH": 6367,
        "BSTAR": 0,
        "MEAN_MOTION_DOT": 6.6e-07,
        "MEAN_MOTION_DDOT": 0,
        "norad_id": 42939,
        "name": "COSMOS 2522 (752)",
        "group": "glo-ops",
        "longitude_deg": NaN,
        "latitude_deg": NaN,
        "alt_km": NaN,
        "orbit_class": "HEO",
        "timestamp": "2025-11-30T04:52:16.842703+00:00"
      },
      "geometry": {
        "type": "Point",
        "coordinates": [
          NaN,
          NaN
        ]
      }
    }
  ]
}